STARLINK-35385          
1 65906U 25224AA  26105.44850760  .00003105  00000+0  11693-3 0  9990
2 65906  53.1601 200.4946 0001228 103.7091 256.4047 15.30199216 30483
STARLINK-35347          
1 65907U 25224AB  26106.22595424  .00009658  00000+0  33777-3 0  9997
2 65907  53.1601 196.8168 0001094  92.7080 267.4046 15.30199888 30604
STARLINK-35329          
1 65908U 25224AC  26105.97735684  .00010275  00000+0  35852-3 0  9996
2 65908  53.1629 198.1089 0000629 109.4304 250.6765 15.30202488 30579
STARLINK-35387          
1 65909U 25224AD  26106.27027519  .00006838  00000+0  24278-3 0  9992
2 65909  53.1602 197.0936 0001104  67.0103 293.1014 15.30200800 30570
STARLINK-35523          
1 65910U 25225A   26106.09899211  .00020899  00000+0  71541-3 0  9999
2 65910  53.1609 352.0591 0000505  70.5456 289.5599 15.30216055 30131
STARLINK-35160          
1 65911U 25225B   26106.11165801  .00009381  00000+0  32844-3 0  9990
2 65911  53.1609 352.1405 0001244  83.8593 276.2549 15.30202903 30132
STARLINK-35508          
1 65912U 25225C   26106.10216050  .00009941  00000+0  34727-3 0  9997
2 65912  53.1610 352.0804 0001375  83.8419 276.2739 15.30204072 30139
STARLINK-35472          
1 65913U 25225D   26106.09582734  .00019437  00000+0  66643-3 0  9994
2 65913  53.1611 352.0409 0001225  77.3129 282.8009 15.30211532 30134
STARLINK-35524          
1 65914U 25225E   26106.05467194  .00009207  00000+0  32256-3 0  9990
2 65914  53.1600 351.7827 0001260  75.6138 284.5002 15.30203811 30136
STARLINK-35539          
1 65915U 25225F   26106.08738730  .00010890  00000+0  37920-3 0  9994
2 65915  53.1610 352.0055 0001318  91.3395 268.7757 15.30205005 30137
STARLINK-35521          
1 65916U 25225G   26105.96097955  .00015392  00000+0  53069-3 0  9992
2 65916  53.1609 352.6176 0001650  85.1649 274.9540 15.30202009 30116
STARLINK-35478          
1 65917U 25225H   26106.25002315 -.00004811  00000+0 -15040-3 0  9995
2 65917  53.1593 351.3124 0001066  83.4812  52.3196 15.30202194  5776
STARLINK-35516          
1 65918U 25225J   26106.25002315 -.00013902  00000+0 -45806-3 0  9990
2 65918  53.1601 351.0956 0001289  82.6345 163.6814 15.30203502  5807
STARLINK-35519          
1 65919U 25225K   26105.85556268  .00009217  00000+0  32293-3 0  9995
2 65919  53.1607 352.6712 0001378  87.0033 273.1126 15.30201603 30107
STARLINK-33902          
1 65920U 25225L   26105.91465751  .00005301  00000+0  19096-3 0  9996
2 65920  53.1591 353.0431 0001053  98.9843 261.1277 15.30199234 30104
STARLINK-35530          
1 65921U 25225M   26106.10743636  .00011833  00000+0  41090-3 0  9996
2 65921  53.1599 352.1133 0001185  94.4440 265.6697 15.30207910 30131
STARLINK-35544          
1 65922U 25225N   26105.97363969  .00011667  00000+0  40542-3 0  9994
2 65922  53.1587 352.6966 0000589  44.1766 315.9282 15.30198721 30114
STARLINK-35484          
1 65923U 25225P   26106.06839016  .00011870  00000+0  41220-3 0  9997
2 65923  53.1607 351.8670 0001229  95.7062 264.4079 15.30203593 30132
STARLINK-34994          
1 65924U 25225Q   26106.06522380  .00007003  00000+0  24831-3 0  9993
2 65924  53.1615 351.8465 0001199  98.0413 262.0724 15.30203213 30136
STARLINK-35458          
1 65925U 25225R   26106.05888752 -.00002735  00000+0 -80308-4 0  9992
2 65925  53.1595 351.8066 0001149  76.7633 283.3495 15.30183524 30136
STARLINK-35492          
1 65926U 25225S   26106.06204349 -.00009273  00000+0 -30145-3 0  9995
2 65926  53.1607 351.8271 0001040  90.8111 269.3008 15.30190478 30137
STARLINK-35494          
1 65927U 25225T   26105.98312095 -.00017215  00000+0 -57058-3 0  9991
2 65927  53.1589 352.7585 0001118 101.1437 258.9689 15.30192246 30110
STARLINK-35493          
1 65928U 25225U   26105.96730820  .00017117  00000+0  58851-3 0  9991
2 65928  53.1603 352.6562 0001437  90.2560 269.8605 15.30211412 30117
STARLINK-35175          
1 65929U 25225V   26105.95358932  .00009071  00000+0  31799-3 0  9993
2 65929  53.1617 352.5696 0001371  91.6482 268.4676 15.30201445 30113
STARLINK-35513          
1 65930U 25225W   26105.97047450  .00016673  00000+0  57358-3 0  9992
2 65930  53.1598 352.6766 0001195  91.9871 268.1267 15.30211649 30111
STARLINK-35526          
1 65931U 25225X   26105.95042426  .00011209  00000+0  38993-3 0  9993
2 65931  53.1629 352.5501 0001674  96.9948 263.1243 15.30204943 30113
STARLINK-35436          
1 65932U 25225Y   26105.94725761  .00012876  00000+0  44587-3 0  9990
2 65932  53.1628 352.5306 0002108  99.5166 260.6073 15.30216531 30119
STARLINK-35192          
1 65933U 25225Z   26105.98208888 -.00002422  00000+0 -69714-4 0  9999
2 65933  53.1595 352.7449 0001344  58.5397 301.5735 15.30186637 30118
STARLINK-33921          
1 65934U 25225AA  26106.00624111  .00006197  00000+0  22113-3 0  9997
2 65934  53.1624 352.1877 0001263  97.1067 263.0078 15.30204991 29231
