OBJECT_NAME,OBJECT_ID,EPOCH,MEAN_MOTION,ECCENTRICITY,INCLINATION,RA_OF_ASC_NODE,ARG_OF_PERICENTER,MEAN_ANOMALY,EPHEMERIS_TYPE,CLASSIFICATION_TYPE,NORAD_CAT_ID,ELEMENT_SET_NO,REV_AT_EPOCH,BSTAR,MEAN_MOTION_DOT,MEAN_MOTION_DDOT
STARLINK-35385,2025-224AA,2026-04-15T10:45:51.056640,15.30199216,0.0001228,53.1601,200.4946,103.7091,256.4047,0,U,65906,999,3048,0.00011693207,3.105e-05,0.0
STARLINK-35347,2025-224AB,2026-04-16T05:25:22.446336,15.30199888,0.00010948,53.1601,196.8168,92.708,267.4046,0,U,65907,999,3060,0.0003377684,9.658e-05,0.0
STARLINK-35329,2025-224AC,2026-04-15T23:27:23.630976,15.30202488,6.296e-05,53.1629,198.1089,109.4304,250.6765,0,U,65908,999,3057,0.0003585162,0.00010275,0.0
STARLINK-35387,2025-224AD,2026-04-16T06:29:11.776416,15.302008,0.00011044,53.1602,197.0936,67.0103,293.1014,0,U,65909,999,3057,0.00024277537,6.838e-05,0.0
STARLINK-35523,2025-225A,2026-04-16T02:22:32.918304,15.30216055,5.051e-05,53.1609,352.0591,70.5456,289.5599,0,U,65910,999,3013,0.00071540901,0.00020899,0.0
STARLINK-35160,2025-225B,2026-04-16T02:40:47.252064,15.30202903,0.00012449,53.1609,352.1405,83.8593,276.2549,0,U,65911,999,3013,0.0003284404,9.381e-05,0.0
STARLINK-35508,2025-225C,2026-04-16T02:27:06.667200,15.30204072,0.00013752,53.161,352.0804,83.8419,276.2739,0,U,65912,999,3013,0.00034726623,9.941e-05,0.0
STARLINK-35472,2025-225D,2026-04-16T02:17:59.482176,15.30211532,0.00012259,53.1611,352.0409,77.3129,282.8009,0,U,65913,999,3013,0.00066643288,0.00019437,0.0
STARLINK-35524,2025-225E,2026-04-16T01:18:43.655616,15.30203811,0.00012601,53.16,351.7827,75.6138,284.5002,0,U,65914,999,3013,0.00032256014,9.207e-05,0.0
STARLINK-35539,2025-225F,2026-04-16T02:05:50.262720,15.30205005,0.00013188,53.161,352.0055,91.3395,268.7757,0,U,65915,999,3013,0.00037920176,0.0001089,0.0
STARLINK-35521,2025-225G,2026-04-15T23:03:48.633120,15.30202009,0.00016508,53.1609,352.6176,85.1649,274.954,0,U,65916,999,3011,0.00053069188,0.00015392,0.0
STARLINK-35478,2025-225H,2026-04-16T06:00:02.000160,15.30202194,0.00010661,53.1593,351.3124,83.4812,52.3196,0,U,65917,999,577,-0.00015039898,-4.811e-05,0.0
STARLINK-35516,2025-225J,2026-04-16T06:00:02.000160,15.30203502,0.00012894,53.1601,351.0956,82.6345,163.6814,0,U,65918,999,580,-0.00045806042,-0.00013902,0.0
STARLINK-35519,2025-225K,2026-04-15T20:32:00.615552,15.30201603,0.0001378,53.1607,352.6712,87.0033,273.1126,0,U,65919,999,3010,0.00032292632,9.217e-05,0.0
STARLINK-33902,2025-225L,2026-04-15T21:57:06.408864,15.30199234,0.00010532,53.1591,353.0431,98.9843,261.1277,0,U,65920,999,3010,0.00019096418,5.301e-05,0.0
STARLINK-35530,2025-225M,2026-04-16T02:34:42.501504,15.3020791,0.00011855,53.1599,352.1133,94.444,265.6697,0,U,65921,999,3013,0.00041090243,0.00011833,0.0
STARLINK-35544,2025-225N,2026-04-15T23:22:02.469216,15.30198721,5.895e-05,53.1587,352.6966,44.1766,315.9282,0,U,65922,999,3011,0.00040542049,0.00011667,0.0
STARLINK-35484,2025-225P,2026-04-16T01:38:28.909824,15.30203593,0.00012295,53.1607,351.867,95.7062,264.4079,0,U,65923,999,3013,0.00041219758,0.0001187,0.0
STARLINK-34994,2025-225Q,2026-04-16T01:33:55.336320,15.30203213,0.00011992,53.1615,351.8465,98.0413,262.0724,0,U,65924,999,3013,0.00024831102,7.003e-05,0.0
STARLINK-35458,2025-225R,2026-04-16T01:24:47.881728,15.30183524,0.00011493,53.1595,351.8066,76.7633,283.3495,0,U,65925,999,3013,-8.0308485e-05,-2.735e-05,0.0
STARLINK-35492,2025-225S,2026-04-16T01:29:20.557536,15.30190478,0.000104,53.1607,351.8271,90.8111,269.3008,0,U,65926,999,3013,-0.00030144789,-9.273e-05,0.0
STARLINK-35494,2025-225T,2026-04-15T23:35:41.650080,15.30192246,0.00011182,53.1589,352.7585,101.1437,258.9689,0,U,65927,999,3011,-0.00057057919,-0.00017215,0.0
STARLINK-35493,2025-225U,2026-04-15T23:12:55.428480,15.30211412,0.00014376,53.1603,352.6562,90.256,269.8605,0,U,65928,999,3011,0.00058850894,0.00017117,0.0
STARLINK-35175,2025-225V,2026-04-15T22:53:10.117248,15.30201445,0.00013715,53.1617,352.5696,91.6482,268.4676,0,U,65929,999,3011,0.00031798855,9.071e-05,0.0
STARLINK-35513,2025-225W,2026-04-15T23:17:28.996800,15.30211649,0.00011959,53.1598,352.6766,91.9871,268.1267,0,U,65930,999,3011,0.00057357867,0.00016673,0.0
STARLINK-35526,2025-225X,2026-04-15T22:48:36.656064,15.30204943,0.00016749,53.1629,352.5501,96.9948,263.1243,0,U,65931,999,3011,0.00038993192,0.00011209,0.0
STARLINK-35436,2025-225Y,2026-04-15T22:44:03.057504,15.30216531,0.00021082,53.1628,352.5306,99.5166,260.6073,0,U,65932,999,3011,0.00044586738,0.00012876,0.0
STARLINK-35192,2025-225Z,2026-04-15T23:34:12.479232,15.30186637,0.00013443,53.1595,352.7449,58.5397,301.5735,0,U,65933,999,3011,-6.9713857e-05,-2.422e-05,0.0
STARLINK-33921,2025-225AA,2026-04-16T00:08:59.231904,15.30204991,0.0001263,53.1624,352.1877,97.1067,263.0078,0,U,65934,999,2923,0.00022113298,6.197e-05,0.0
